satname,norad_id,inclination_deg,eccentricity,mean_motion_rev_per_day,perigee_km,apogee_km,l1,l2
STARLINK-1184,45098,53.0528,0.000152,15.07160068,543.8307389784022,545.9353370699619,1 45098U 20006BG  26002.75780810  .00008099  00000+0  55064-3 0  9998,2 45098  53.0528 182.5193 0001520 132.8776 227.2341 15.07160068327087
STARLINK-1193,45100,53.0543,0.0001454,15.06403899,546.1926641477949,548.2065520334281,1 45100U 20006BJ  26002.76164622  .00001567  00000+0  12403-3 0  9993,2 45100  53.0543 182.5797 0001454 106.3563 253.7586 15.06403899327080
STARLINK-1143,45179,53.0535,0.0003594,15.50275272,413.47991515505873,418.36348454851304,1 45179U 20012B   26002.20339932  .00128552  00000+0  22047-2 0  9991,2 45179  53.0535 291.6953 0003594  99.8561 260.2853 15.50275272325577
STARLINK-1202,45183,53.0565,0.0001408,15.06399748,546.2372410963872,548.1874194677948,1 45183U 20012F   26002.22718509  .00001164  00000+0  97049-4 0  9994,2 45183  53.0565 344.9740 0001408  86.6400 273.4750 15.06399748324824
STARLINK-1216,45185,53.0572,0.0001595,15.06389675,546.1386046146117,548.3478008992915,1 45185U 20012H   26002.35251958  .00001388  00000+0  11210-3 0  9993,2 45185  53.0572 344.4114 0001595  99.1089 261.0080 15.06389675324785
STARLINK-1225,45187,53.056,0.0001448,15.06385576,546.2529689011044,548.2585626460714,1 45187U 20012K   26002.37095300  .00000073  00000+0  23822-4 0  9997,2 45187  53.0560 344.3344 0001448 104.6029 255.5120 15.06385576324836
STARLINK-1230,45189,53.0545,0.0001346,15.06398364,546.2844194563904,548.1487246379847,1 45189U 20012M   26002.37463660  .00003871  00000+0  27864-3 0  9995,2 45189  53.0545 344.3206 0001346  99.8190 260.2951 15.06398364322066
STARLINK-1234,45190,53.0504,0.0013489,15.47919584,413.63913754523674,431.98674029044923,1 45190U 20012N   26002.91668980  .00069352  00000+0  13015-2 0  9997,2 45190  53.0504 283.2094 0013489  81.5093  57.1201 15.47919584  5955
STARLINK-1269,45197,53.0557,0.0001293,15.06392127,546.3402369659361,548.1311383429638,1 45197U 20012V   26002.31934137  .00000478  00000+0  50957-4 0  9990,2 45197  53.0557 344.5675 0001293  96.2233 263.8904 15.06392127324802
STARLINK-1154,45198,53.0584,0.0001343,15.28161391,480.3875306276541,482.2299777572307,1 45198U 20012W   26002.91668980  .01044741  00000+0  34426-1 0  9999,2 45198  53.0584 320.9757 0001343  95.8632  64.5644 15.28161391  5798
STARLINK-1199,45201,53.0548,0.0001285,15.06395373,546.3358299511965,548.115648175135,1 45201U 20012Z   26002.58657546 -.00000032  00000+0  16748-4 0  9998,2 45201  53.0548 323.3703 0001285  87.9952 272.1184 15.06395373325159
STARLINK-1209,45206,53.052,0.0013598,15.40230251,436.1505054914105,454.7078761039038,1 45206U 20012AE  26002.83346321  .00090160  00000+0  21865-2 0  9991,2 45206  53.0520 287.2118 0013598  79.6347 280.6189 15.40230251324731
STARLINK-1210,45207,53.0174,0.0003256,15.75651337,340.5900347809584,344.96669486653263,1 45207U 20012AF  26002.91668980  .00099395  00000+0  63326-3 0  9997,2 45207  53.0174 234.8809 0003256 188.8126 223.7479 15.75651337  6029
STARLINK-1231,45212,53.0491,0.0001253,15.16550675,515.4109854380258,517.1387250489506,1 45212U 20012AL  26002.13842149  .00070954  00000+0  35740-2 0  9996,2 45212  53.0491 320.2181 0001253 107.7219 252.3912 15.16550675325110
STARLINK-1271,45217,53.0551,0.00015,15.0638893,546.2066787287622,548.2842934745931,1 45217U 20012AR  26002.17374998  .00000943  00000+0  82220-4 0  9995,2 45217  53.0551 325.2215 0001500  84.4154 275.7006 15.06388930325091
STARLINK-1191,45222,53.0552,0.0001178,15.06381425,546.4526754564677,548.0843009894916,1 45222U 20012AW  26002.24931685  .00007505  00000+0  52242-3 0  9992,2 45222  53.0552 304.8793 0001178 100.0137 260.0985 15.06381425325386
STARLINK-1212,45223,53.055,0.0001365,15.22001211,498.8661629647195,500.7438411312778,1 45223U 20012AX  26002.91668980  .00983531  00000+0  39144-1 0  9998,2 45223  53.0550 302.0411 0001365  93.0044  85.6737 15.22001211  5693
STARLINK-1215,45225,53.0541,0.0001134,15.06391869,546.4511410418418,548.0218157467425,1 45225U 20012AZ  26002.55524175  .00009978  00000+0  68796-3 0  9998,2 45225  53.0541 303.5088 0001134  72.1093 288.0019 15.06391869325383
STARLINK-1221,45227,53.0663,0.0005176,15.39302468,444.63746161590643,451.70405540751744,1 45227U 20012BB  26002.80609543  .00024569  00000+0  62850-3 0  9999,2 45227  53.0663 221.1854 0005176 143.2039 216.9321 15.39302468326555
STARLINK-1222,45228,53.0583,0.000237,15.42789718,436.26490461626145,439.4956968168017,1 45228U 20012BC  26002.12153688  .00030096  00000+0  68373-3 0  9997,2 45228  53.0583 300.5163 0002370  98.5435 261.5839 15.42789718325322
STARLINK-1226,45229,53.055,0.0001303,15.06402255,546.3022746801134,548.1070187132427,1 45229U 20012BD  26002.55157252  .00008424  00000+0  58368-3 0  9999,2 45229  53.0550 303.5241 0001303  79.6257 280.4879 15.06402255325326
STARLINK-1227,45230,53.0547,0.0001235,15.06396802,546.3660776076385,548.0766411224013,1 45230U 20012BE  26002.54786654  .00006054  00000+0  42498-3 0  9998,2 45230  53.0547 303.5391 0001235  89.1007 271.0124 15.06396802325445
STARLINK-1246,45235,53.0542,9.81e-05,15.06400817,546.5296775041861,547.8884303999712,1 45235U 20012BK  26002.36356952  .00000757  00000+0  69689-4 0  9993,2 45235  53.0542 344.3683 0000981  85.4872 274.6230 15.06400817324862
STARLINK-1270,45237,53.0554,0.0001111,15.3697489,454.30164257736124,455.81997913093346,1 45237U 20012BM  26002.52654086  .00022789  00000+0  62969-3 0  9994,2 45237  53.0554 301.1115 0001111  86.6821 273.4308 15.36974890325461
STARLINK-1279,45360,53.0486,0.0003074,15.43545344,433.5610874130716,437.7502071326153,1 45360U 20019A   26002.63082952  .00060064  00000+0  13161-2 0  9994,2 45360  53.0486  55.9746 0003074 286.5043  73.5624 15.43545344320420
STARLINK-1301,45361,53.0473,0.0005233,15.48643742,417.1348276222907,424.2504827394023,1 45361U 20019B   26002.66508627  .00098515  00000+0  17977-2 0  9991,2 45361  53.0473  64.1746 0005233 307.8844  52.1690 15.48643742320325
STARLINK-1306,45362,53.0349,0.0005338,16.03634619,260.8171744268593,267.90870736375837,1 45362U 20019C   26002.38629183  .00657017  21629-3  10154-2 0  9994,2 45362  53.0349  36.6404 0005338  50.7641 309.3863 16.03634619320670
STARLINK-1262,45366,53.0558,0.0001566,15.06388204,546.1631959694841,548.332226461036,1 45366U 20019G   26002.67688157  .00003190  00000+0  23304-3 0  9991,2 45366  53.0558 102.9620 0001566  75.9918 284.1245 15.06388204319780
STARLINK-1273,45367,53.0561,0.0001132,15.06406584,546.4074318275407,547.9753261725455,1 45367U 20019H   26002.56628973  .00000684  00000+0  64781-4 0  9990,2 45367  53.0561 103.4546 0001132  80.5868 279.5249 15.06406584319765
STARLINK-1276,45368,53.0553,0.0001409,15.06396058,546.2478563127479,548.1994229409956,1 45368U 20019J   26002.66950111  .00007013  00000+0  48930-3 0  9994,2 45368  53.0553 102.9968 0001409 112.1525 247.9614 15.06396058319789
STARLINK-1277,45369,53.0562,0.0001542,15.0641203,546.1068049039977,548.2425710285679,1 45369U 20019K   26002.59584922  .00000974  00000+0  84280-4 0  9998,2 45369  53.0562 103.9498 0001542  84.6916 275.4250 15.06412030319763
STARLINK-1281,45370,53.0569,0.0001383,15.06394054,546.2720034059394,548.187559857739,1 45370U 20019L   26002.65844779  .00000515  00000+0  53495-4 0  9991,2 45370  53.0569 103.0466 0001383  83.8650 276.2497 15.06394054319786
STARLINK-1300,45374,53.0569,0.0001158,15.06393789,546.4286362567691,548.0325513914995,1 45374U 20019Q   26002.68056232 -.00000851  00000+0 -38248-4 0  9991,2 45374  53.0569 102.9404 0001158 128.9607 231.1485 15.06393789319784
STARLINK-1302,45375,53.056,0.000147,15.06407956,546.1691513978849,548.2051967050556,1 45375U 20019R   26002.56260214 -.00000301  00000+0 -12980-5 0  9992,2 45375  53.0560 103.4766 0001470  88.9641 271.1517 15.06407956319763
STARLINK-1304,45376,53.0557,0.0001135,15.23775197,493.68570444044144,495.24578526352343,1 45376U 20019S   26002.91668980  .01732306  00000+0  64988-1 0  9991,2 45376  53.0557 101.3501 0001135  62.1035 233.8559 15.23775197  5737
STARLINK-1305,45377,53.0509,0.0002844,15.41457982,439.8659232448563,443.74510654732785,1 45377U 20019T   26002.54910599  .00108472  00000+0  25250-2 0  9997,2 45377  53.0509  88.1524 0002844 259.1760 100.8924 15.41457982319986
STARLINK-1319,45379,53.0527,0.0003893,15.44981017,428.7828845700569,434.08481643425785,1 45379U 20019V   26002.63640788  .00086573  00000+0  17967-2 0  9992,2 45379  53.0527  88.0352 0003893 237.6433 122.4196 15.44981017319995
STARLINK-1266,45383,53.0548,0.0002065,15.06420457,545.7187893588771,548.5789324194238,1 45383U 20019Z   26002.53496957  .00031909  00000+0  21501-2 0  9995,2 45383  53.0548  83.6019 0002065  73.2693 286.8523 15.06420457320036
STARLINK-1267,45384,53.0556,0.0001263,15.37900351,451.4565107565986,453.1818839920552,1 45384U 20019AA  26002.65002772  .00088767  00000+0  23304-2 0  9994,2 45384  53.0556  80.9070 0001263  36.5422 323.5667 15.37900351320087
STARLINK-1272,45386,53.0503,0.0004791,15.43901119,431.34484491681815,437.8728179725085,1 45386U 20019AC  26002.81776089  .00029248  00000+0  64030-3 0  9994,2 45386  53.0503  65.6948 0004791 290.7118  69.3374 15.43901119320316
STARLINK-1274,45387,53.0325,0.0004542,15.37627061,450.02575292859547,456.231274521263,1 45387U 20019AD  26002.43692251  .00087586  00000+0  23198-2 0  9999,2 45387  53.0325  57.3901 0004542  19.6456 340.4721 15.37627061320394
STARLINK-1280,45388,53.0488,0.0003522,15.50548245,412.73169678172417,417.5168700297563,1 45388U 20019AE  26002.91668980  .00074832  00000+0  12830-2 0  9996,2 45388  53.0488  82.0347 0003522 258.1044 151.7212 15.50548245  5966
STARLINK-1283,45389,53.0502,0.0005588,15.42596169,434.6413152746036,442.25953338003274,1 45389U 20019AF  26002.91668980  .00078932  00000+0  17777-2 0  9997,2 45389  53.0502  65.3063 0005588   8.0907 313.6097 15.42596169  5876
